[Satellite]
VERSION=1.1
NAME=SL-14 R/B
NICKNAME=SL-14 R/B
TLE1=1 17912U 87038B   22342.51787293  .00000412  00000+0  47171-4 0  9991
TLE2=2 17912  82.5006 333.1878 0021503 120.2964 240.0382 14.83325345903123
STATUS=0
